STARLINK-32569          
1 61867U 24202Y   26068.49794347 -.00000075  00000+0  67999-5 0  9994
2 61867  42.9979 239.4680 0001057 268.5924  91.4806 15.27573246 75306
TROLL                   
1 62658U 25009BB  26068.22522958  .00013174  00000+0  48220-3 0  9994
2 62658  97.3932 150.7169 0001816  59.1850 300.9568 15.28164315118170
